KUIPER-00071            
1 64818U 25151C   25247.91670139 -.00672028  00000+0 -48032-1 0  9991
2 64818  51.9054  46.5309 0006356 328.3569 336.9460 15.06514864  5675
KUIPER-00072            
1 64819U 25151D   25247.70258481  .00055797  00000+0  15427-2 0  9990
2 64819  51.8792  44.3958 0006366 331.7004  28.3636 15.36467260  7740
KUIPER-00073            
1 64820U 25151E   25247.91670139  .00056795  00000+0  36548-2 0  9999
2 64820  51.8933  46.5856 0011468 355.5367  14.8383 15.07779128  5525
KUIPER-00074            
1 64821U 25151F   25247.69892008  .00055086  00000+0  15231-2 0  9994
2 64821  51.8801  44.3741 0006124 329.9193  30.1440 15.36473291  7749
KUIPER-00075            
1 64822U 25151G   25247.74891632  .00038858  00000+0  10534-2 0  9992
2 64822  51.8781  43.9728 0005460 318.9291  41.1284 15.37248618  7759
KUIPER-00076            
1 64823U 25151H   25247.91670139 -.00571475  00000+0 -19457-1 0  9990
2 64823  51.8803  43.4502 0006285 327.2911 101.4810 15.32265756  4656
KUIPER-00077            
1 64824U 25151J   25247.91670139 -.00839996  00000+0 -40890-1 0  9991
2 64824  51.8877  44.4033 0005105 322.0730  22.2426 15.20701310  5865
KUIPER-00078            
1 64825U 25151K   25247.91670139 -.00447719  00000+0 -18092-1 0  9999
2 64825  51.8806  43.8058 0007405 359.7998 265.5825 15.26186073  5804
